start=new Date('2022-11-04T00:00:00.000Z').valueOf();
sats=[{"BSTAR":"0.00030900000000","RA_OF_ASC_NODE":"7.0098","NORAD_CAT_ID":"53222","SEMIMAJOR_AXIS":"6941.104","REV_AT_EPOCH":"1598","RCS_SIZE":"LARGE","ECCENTRICITY":"0.00016930","MEAN_ELEMENT_THEORY":"SGP4","REF_FRAME":"TEME","ELEMENT_SET_NO":"999","MEAN_ANOMALY":"265.2385","CENTER_NAME":"EARTH","PERIAPSIS":"561.793","OBJECT_TYPE":"PAYLOAD","TLE_LINE1":"1 53222U 22084AK  22307.73202265  .00003914  00000-0  30900-3 0  9993","MEAN_MOTION_DOT":"0.00003914","INCLINATION":"97.6559","GP_ID":"216864849","TIME_SYSTEM":"UTC","LAUNCH_DATE":"2022-07-22","MEAN_MOTION_DDOT":"0.0000000000000","EPOCH":"2022-11-03T17:34:06.756960","CLASSIFICATION_TYPE":"U","FILE":"3644033","OBJECT_ID":"2022-084AK","PERIOD":"95.919","TLE_LINE2":"2 53222  97.6559   7.0098 0001693  94.9033 265.2385 15.01274037 15982","COUNTRY_CODE":"US","DECAY_DATE":null,"MEAN_MOTION":"15.01274037","APOAPSIS":"564.144","SITE":"AFWTR","OBJECT_NAME":"STARLINK-4381","ARG_OF_PERICENTER":"94.9033","EPHEMERIS_TYPE":"0"},{"PERIAPSIS":"561.734","TLE_LINE1":"1 53223U 22084AL  22307.45801443  .00001881  00000-0  15100-3 0  9992","MEAN_MOTION_DOT":"0.00001881","OBJECT_TYPE":"PAYLOAD","CENTER_NAME":"EARTH","ELEMENT_SET_NO":"999","MEAN_ANOMALY":"302.7663","REF_FRAME":"TEME","REV_AT_EPOCH":"1594","RCS_SIZE":"LARGE","MEAN_ELEMENT_THEORY":"SGP4","ECCENTRICITY":"0.00018620","RA_OF_ASC_NODE":"6.7490","BSTAR":"0.00015100000000","SEMIMAJOR_AXIS":"6941.161","NORAD_CAT_ID":"53223","ARG_OF_PERICENTER":"57.3741","OBJECT_NAME":"STARLINK-4354","EPHEMERIS_TYPE":"0","SITE":"AFWTR","APOAPSIS":"564.319","DECAY_DATE":null,"COUNTRY_CODE":"US","TLE_LINE2":"2 53223  97.6583   6.7490 0001862  57.3741 302.7663 15.01255255 15942","MEAN_MOTION":"15.01255255","CLASSIFICATION_TYPE":"U","PERIOD":"95.920","OBJECT_ID":"2022-084AL","FILE":"3643813","EPOCH":"2022-11-03T10:59:32.446752","TIME_SYSTEM":"UTC","LAUNCH_DATE":"2022-07-22","MEAN_MOTION_DDOT":"0.0000000000000","GP_ID":"216834051","INCLINATION":"97.6583"},{"EPOCH":"2022-11-03T12:43:31.449504","LAUNCH_DATE":"2022-07-22","MEAN_MOTION_DDOT":"0.0000000000000","TIME_SYSTEM":"UTC","GP_ID":"216863632","INCLINATION":"97.6567","APOAPSIS":"564.498","SITE":"AFWTR","ARG_OF_PERICENTER":"100.5366","EPHEMERIS_TYPE":"0","OBJECT_NAME":"STARLINK-4356","MEAN_MOTION":"15.01254106","TLE_LINE2":"2 53224  97.6567   6.8141 0002115 100.5366 259.6097 15.01254106 15951","COUNTRY_CODE":"US","DECAY_DATE":null,"FILE":"3644033","OBJECT_ID":"2022-084AM","PERIOD":"95.920","CLASSIFICATION_TYPE":"U","REF_FRAME":"TEME","MEAN_ELEMENT_THEORY":"SGP4","ECCENTRICITY":"0.00021150","REV_AT_EPOCH":"1595","RCS_SIZE":"LARGE","NORAD_CAT_ID":"53224","SEMIMAJOR_AXIS":"6941.165","BSTAR":"0.00003788300000","RA_OF_ASC_NODE":"6.8141","OBJECT_TYPE":"PAYLOAD","MEAN_MOTION_DOT":"0.00000428","TLE_LINE1":"1 53224U 22084AM  22307.53022511  .00000428  00000-0  37883-4 0  9992","PERIAPSIS":"561.562","CENTER_NAME":"EARTH","MEAN_ANOMALY":"259.6097","ELEMENT_SET_NO":"999"},{"CENTER_NAME":"EARTH","PERIAPSIS":"561.571","MEAN_MOTION_DOT":"0.00001934","TLE_LINE1":"1 53225U 22084AN  22307.78756985  .00001934  00000-0  15508-3 0  9991","OBJECT_TYPE":"PAYLOAD","ELEMENT_SET_NO":"999","MEAN_ANOMALY":"305.0652","RCS_SIZE":"LARGE","REV_AT_EPOCH":"1599","ECCENTRICITY":"0.00020520","MEAN_ELEMENT_THEORY":"SGP4","REF_FRAME":"TEME","BSTAR":"0.00015508000000","RA_OF_ASC_NODE":"7.0755","SEMIMAJOR_AXIS":"6941.131","NORAD_CAT_ID":"53225","DECAY_DATE":null,"COUNTRY_CODE":"US","TLE_LINE2":"2 53225  97.6592   7.0755 0002052  55.0765 305.0652 15.01265214 15990","MEAN_MOTION":"15.01265214","OBJECT_NAME":"STARLINK-4358","ARG_OF_PERICENTER":"55.0765","EPHEMERIS_TYPE":"0","APOAPSIS":"564.420","SITE":"AFWTR","CLASSIFICATION_TYPE":"U","OBJECT_ID":"2022-084AN","PERIOD":"95.919","FILE":"3644033","TIME_SYSTEM":"UTC","LAUNCH_DATE":"2022-07-22","MEAN_MOTION_DDOT":"0.0000000000000","EPOCH":"2022-11-03T18:54:06.035040","INCLINATION":"97.6592","GP_ID":"216863807"},{"CENTER_NAME":"EARTH","PERIAPSIS":"561.931","OBJECT_TYPE":"PAYLOAD","MEAN_MOTION_DOT":"0.00007893","TLE_LINE1":"1 53226U 22084AP  22307.79152278  .00007893  00000-0  61866-3 0  9996","ELEMENT_SET_NO":"999","MEAN_ANOMALY":"277.6410","RCS_SIZE":"LARGE","REV_AT_EPOCH":"1600","MEAN_ELEMENT_THEORY":"SGP4","ECCENTRICITY":"0.00016270","REF_FRAME":"TEME","RA_OF_ASC_NODE":"7.0771","BSTAR":"0.00061866000000","NORAD_CAT_ID":"53226","SEMIMAJOR_AXIS":"6941.196","TLE_LINE2":"2 53226  97.6576   7.0771 0001627  82.4999 277.6410 15.01244116 16008","COUNTRY_CODE":"US","DECAY_DATE":null,"MEAN_MOTION":"15.01244116","APOAPSIS":"564.190","SITE":"AFWTR","ARG_OF_PERICENTER":"82.4999","OBJECT_NAME":"STARLINK-4359","EPHEMERIS_TYPE":"0","CLASSIFICATION_TYPE":"U","FILE":"3643926","OBJECT_ID":"2022-084AP","PERIOD":"95.920","TIME_SYSTEM":"UTC","MEAN_MOTION_DDOT":"0.0000000000000","LAUNCH_DATE":"2022-07-22","EPOCH":"2022-11-03T18:59:47.568192","INCLINATION":"97.6576","GP_ID":"216837058"},{"MEAN_ANOMALY":"297.0985","ELEMENT_SET_NO":"999","CENTER_NAME":"EARTH","TLE_LINE1":"1 53227U 22084AQ  22307.18424152  .00003164  00000-0  25073-3 0  9990","MEAN_MOTION_DOT":"0.00003164","OBJECT_TYPE":"PAYLOAD","PERIAPSIS":"561.572","SEMIMAJOR_AXIS":"6941.115","NORAD_CAT_ID":"53227","RA_OF_ASC_NODE":"6.4928","BSTAR":"0.00025073000000","ECCENTRICITY":"0.00020280","MEAN_ELEMENT_THEORY":"SGP4","RCS_SIZE":"LARGE","REV_AT_EPOCH":"1590","REF_FRAME":"TEME","PERIOD":"95.919","OBJECT_ID":"2022-084AQ","FILE":"3643813","CLASSIFICATION_TYPE":"U","MEAN_MOTION":"15.01270313","DECAY_DATE":null,"TLE_LINE2":"2 53227  97.6597   6.4928 0002028  63.0446 297.0985 15.01270313 15906","COUNTRY_CODE":"US","ARG_OF_PERICENTER":"63.0446","OBJECT_NAME":"STARLINK-4366","EPHEMERIS_TYPE":"0","APOAPSIS":"564.388","SITE":"AFWTR","INCLINATION":"97.6597","GP_ID":"216834469","MEAN_MOTION_DDOT":"0.0000000000000","LAUNCH_DATE":"2022-07-22","TIME_SYSTEM":"UTC","EPOCH":"2022-11-03T04:25:18.467328"},{"TLE_LINE2":"2 53228  97.6597   6.7504 0001878  66.5548 293.5874 15.01265480 15944","COUNTRY_CODE":"US","DECAY_DATE":null,"MEAN_MOTION":"15.01265480","APOAPSIS":"564.299","SITE":"AFWTR","EPHEMERIS_TYPE":"0","OBJECT_NAME":"STARLINK-4365","ARG_OF_PERICENTER":"66.5548","CLASSIFICATION_TYPE":"U","FILE":"3643813","OBJECT_ID":"2022-084AR","PERIOD":"95.919","TIME_SYSTEM":"UTC","LAUNCH_DATE":"2022-07-22","MEAN_MOTION_DDOT":"0.0000000000000","EPOCH":"2022-11-03T10:56:52.311264","INCLINATION":"97.6597","GP_ID":"216834804","CENTER_NAME":"EARTH","PERIAPSIS":"561.691","OBJECT_TYPE":"PAYLOAD","TLE_LINE1":"1 53228U 22084AR  22307.45616101  .00001503  00000-0  12158-3 0  9993","MEAN_MOTION_DOT":"0.00001503","ELEMENT_SET_NO":"999","MEAN_ANOMALY":"293.5874","RCS_SIZE":"LARGE","REV_AT_EPOCH":"1594","MEAN_ELEMENT_THEORY":"SGP4","ECCENTRICITY":"0.00018780","REF_FRAME":"TEME","BSTAR":"0.00012158000000","RA_OF_ASC_NODE":"6.7504","SEMIMAJOR_AXIS":"6941.130","NORAD_CAT_ID":"53228"},{"EPOCH":"2022-11-03T20:24:44.652384","TIME_SYSTEM":"UTC","MEAN_MOTION_DDOT":"0.0000000000000","LAUNCH_DATE":"2022-07-22","GP_ID":"216864226","INCLINATION":"97.6593","ARG_OF_PERICENTER":"57.7077","OBJECT_NAME":"STARLINK-4367","EPHEMERIS_TYPE":"0","SITE":"AFWTR","APOAPSIS":"564.491","DECAY_DATE":null,"TLE_LINE2":"2 53229  97.6593   7.1495 0002187  57.7077 302.4359 15.01272612 16009","COUNTRY_CODE":"US","MEAN_MOTION":"15.01272612","CLASSIFICATION_TYPE":"U","PERIOD":"95.919","OBJECT_ID":"2022-084AS","FILE":"3644033","REF_FRAME":"TEME","REV_AT_EPOCH":"1600","RCS_SIZE":"LARGE","MEAN_ELEMENT_THEORY":"SGP4","ECCENTRICITY":"0.00021870","BSTAR":"0.00030036000000","RA_OF_ASC_NODE":"7.1495","SEMIMAJOR_AXIS":"6941.108","NORAD_CAT_ID":"53229","PERIAPSIS":"561.455","MEAN_MOTION_DOT":"0.00003802","TLE_LINE1":"1 53229U 22084AS  22307.85051681  .00003802  00000-0  30036-3 0  9993","OBJECT_TYPE":"PAYLOAD","CENTER_NAME":"EARTH","ELEMENT_SET_NO":"999","MEAN_ANOMALY":"302.4359"},{"FILE":"3644033","PERIOD":"95.918","OBJECT_ID":"2022-084AT","CLASSIFICATION_TYPE":"U","MEAN_MOTION":"15.01280396","COUNTRY_CODE":"US","TLE_LINE2":"2 53230  97.6599   7.0756 0001966  59.6296 300.5122 15.01280396 15996","DECAY_DATE":null,"APOAPSIS":"564.314","SITE":"AFWTR","EPHEMERIS_TYPE":"0","ARG_OF_PERICENTER":"59.6296","OBJECT_NAME":"STARLINK-4364","INCLINATION":"97.6599","GP_ID":"216864850","MEAN_MOTION_DDOT":"0.0000000000000","LAUNCH_DATE":"2022-07-22","TIME_SYSTEM":"UTC","EPOCH":"2022-11-03T18:51:25.345728","MEAN_ANOMALY":"300.5122","ELEMENT_SET_NO":"999","CENTER_NAME":"EARTH","OBJECT_TYPE":"PAYLOAD","MEAN_MOTION_DOT":"0.00003858","TLE_LINE1":"1 53230U 22084AT  22307.78571002  .00003858  00000-0  30464-3 0  9997","PERIAPSIS":"561.584","NORAD_CAT_ID":"53230","SEMIMAJOR_AXIS":"6941.084","BSTAR":"0.00030464000000","RA_OF_ASC_NODE":"7.0756","MEAN_ELEMENT_THEORY":"SGP4","ECCENTRICITY":"0.00019660","REV_AT_EPOCH":"1599","RCS_SIZE":"LARGE","REF_FRAME":"TEME"},{"RA_OF_ASC_NODE":"7.0777","BSTAR":"0.00036259000000","NORAD_CAT_ID":"53231","SEMIMAJOR_AXIS":"6941.092","REF_FRAME":"TEME","RCS_SIZE":"LARGE","REV_AT_EPOCH":"1599","MEAN_ELEMENT_THEORY":"SGP4","ECCENTRICITY":"0.00020240","ELEMENT_SET_NO":"999","MEAN_ANOMALY":"294.8793","PERIAPSIS":"561.552","TLE_LINE1":"1 53231U 22084AU  22307.78016191  .00004603  00000-0  36259-3 0  9998","MEAN_MOTION_DOT":"0.00004603","OBJECT_TYPE":"PAYLOAD","CENTER_NAME":"EARTH","GP_ID":"216837571","INCLINATION":"97.6597","EPOCH":"2022-11-03T18:43:25.989024","TIME_SYSTEM":"UTC","LAUNCH_DATE":"2022-07-22","MEAN_MOTION_DDOT":"0.0000000000000","CLASSIFICATION_TYPE":"U","PERIOD":"95.918","OBJECT_ID":"2022-084AU","FILE":"3643927","ARG_OF_PERICENTER":"65.2641","EPHEMERIS_TYPE":"0","OBJECT_NAME":"STARLINK-4370","APOAPSIS":"564.362","SITE":"AFWTR","DECAY_DATE":null,"TLE_LINE2":"2 53231  97.6597   7.0777 0002024  65.2641 294.8793 15.01277727 15994","COUNTRY_CODE":"US","MEAN_MOTION":"15.01277727"}];
